INMARSAT 4-F1           
1 28628U 05009A   25205.49141885  .00000019  00000+0  00000+0 0  9992
2 28628   4.7398  42.3799 0001700 103.4699 151.5984  1.00271719 74386
DIRECTV 8               
1 28659U 05019A   25205.52914341 -.00000010  00000+0  00000+0 0  9998
2 28659   0.0124  77.2064 0002837  58.2263 238.4982  1.00270943 73788
GALAXY 28 (G-28)        
1 28702U 05022A   25205.53512345 -.00000200  00000+0  00000+0 0  9991
2 28702   2.4519  83.0813 0002780  37.5640 285.7906  1.00270882 48699
THAICOM 4               
1 28786U 05028A   25205.57536661 -.00000374  00000+0  00000+0 0  9992
2 28786   0.0181  64.0901 0001708  58.4768 146.6028  1.00269856 48968
ANIK F1R                
1 28868U 05036A   25205.53148343 -.00000089  00000+0  00000+0 0  9997
2 28868   3.4696  80.6942 0003228  36.1445 269.6728  1.00272230 43160
SYRACUSE 3A             
1 28885U 05041B   25205.20014291  .00000115  00000+0  00000+0 0  9999
2 28885   3.8036  79.9657 0002811  45.2328 270.7884  1.00271849 72458
INMARSAT 4-F2           
1 28899U 05044A   25205.58787608 -.00000274  00000+0  00000+0 0  9994
2 28899   4.6686  43.5603 0001778  97.7023 156.3989  1.00270674 72232
METEOSAT-9 (MSG-2)      
1 28912U 05049B   25205.20490959  .00000109  00000+0  00000+0 0  9990
2 28912   8.6106  57.3076 0000951 347.7667  16.5694  1.00275095  3720
EUTELSAT 174A           
1 28924U 05052A   25205.51588336 -.00000005  00000+0  00000+0 0  9994
2 28924   3.3859  80.6322 0005936  45.9635 175.5620  1.00273100 49048
ECHOSTAR 10             
1 28935U 06003A   25205.53087676 -.00000067  00000+0  00000+0 0  9994
2 28935   0.0598 275.4030 0001424 232.9025 235.1041  1.00271657 71177
SPAINSAT                
1 28945U 06007A   25205.24380932 -.00000227  00000+0  00000+0 0  9996
2 28945   0.0219 263.3112 0003894 255.6629 201.0420  1.00270449 70923
EUTELSAT HOTBIRD 13E    
1 28946U 06007B   25205.47254497 -.00000149  00000+0  00000+0 0  9991
2 28946   1.2228  89.5302 0006429 182.7323 155.6715  0.98117867 71027
JCSAT-5A                
1 29045U 06010A   25205.58195953 -.00000340  00000+0  00000+0 0  9992
2 29045   0.2594  88.9657 0001640  31.7120 163.4054  1.00272245 70485
ASTRA 1KR               
1 29055U 06012A   25205.55653022  .00000108  00000+0  00000+0 0  9999
2 29055   0.0826 276.7083 0002783 261.7627 343.5811  1.00272738 42419
EWS-G1 (GOES 13)        
1 29155U 06018A   25205.33899124 -.00000187  00000+0  00000+0 0  9995
2 29155   3.6772  80.4580 0059439 267.0887  78.0481  0.98788923 40008
GALAXY 16 (G-16)        
1 29236U 06023A   25205.51303730 -.00000138  00000+0  00000+0 0  9990
2 29236   0.0606 246.1188 0002403 235.2697 266.7518  1.00272149 69689
EUTELSAT HOTBIRD 13B    
1 29270U 06032A   25205.63911921  .00000143  00000+0  00000+0 0  9993
2 29270   0.8125  85.9172 0003807  38.0720  81.7665  1.00269284 44023
JCSAT-3A                
1 29272U 06033A   25205.57870124 -.00000357  00000+0  00000+0 0  9996
2 29272   0.0183 321.1134 0002160 179.8571 137.8755  1.00269154 44459
SYRACUSE 3B             
1 29273U 06033B   25205.55341021  .00000008  00000+0  00000+0 0  9996
2 29273   2.0566  84.2915 0004392  77.4435 343.2777  1.00273862 69390
KOREASAT 5 (MUGUNGWHA 5)
1 29349U 06034A   25205.57204779 -.00000371  00000+0  00000+0 0  9995
2 29349   0.9344  87.7750 0002115  89.8954  83.8284  1.00269194 38034
DIRECTV 9S              
1 29494U 06043A   25205.53269677 -.00000126  00000+0  00000+0 0  9998
2 29494   1.5723  85.0082 0002880  47.9543 260.0933  1.00271093 48098
OPTUS D1                
1 29495U 06043B   25205.58861345 -.00000198  00000+0  00000+0 0  9993
2 29495   2.1872  83.8285 0003575  40.4987 182.0679  1.00269478 68832
BADR-4                  
1 29526U 06051A   25205.55800355  .00000132  00000+0  00000+0 0  9995
2 29526   1.1562  84.6709 0001563  60.9389  23.9963  1.00271825 47981
WILDBLUE-1              
1 29643U 06054A   25205.53070343 -.00000062  00000+0  00000+0 0  9995
2 29643   1.9546  84.7972 0001289  47.8969 249.6461  1.00272034 50502
SKYNET 5A               
1 30794U 07007B   25205.57165031 -.00000287  00000+0  00000+0 0  9995
2 30794   4.4625  77.7413 0003354  45.3135 120.4918  1.00272414 67415
ANIK F3                 
1 31102U 07009A   25205.52923008 -.00000013  00000+0  00000+0 0  9999
2 31102   0.3470  88.1826 0002483  50.9821 235.1373  1.00273368 43278
ASTRA 1L                
1 31306U 07016A   25205.55661689  .00000109  00000+0  00000+0 0  9995
2 31306   0.4732  82.2923 0002806  44.4452  35.5479  1.00273118 41704
GALAXY 17 (G-17)        
1 31307U 07016B   25205.53590345 -.00000219  00000+0  00000+0 0  9997
2 31307   2.1395  84.1470 0001502  44.9888 281.2512  1.00271407 66510
ZHONGXING-6B            
1 31800U 07031A   25204.66846757 -.00000370  00000+0  00000+0 0  9994
2 31800   1.5457  85.6438 0001887  65.7481 144.2664  1.00268321 66131
DIRECTV 10              
1 31862U 07032A   25205.53315623 -.00000115  00000+0  00000+0 0  9990
2 31862   0.0353 251.1455 0000415 279.6379 220.8359  1.00270751 66126
OPTUS D2                
1 32252U 07044A   25205.50114060 -.00000114  00000+0  00000+0 0  9995
2 32252   1.2237  86.2683 0002574  50.6326 147.0070  1.00271969 65289
INTELSAT 11 (IS-11)     
1 32253U 07044B   25205.57880828 -.00000257  00000+0  00000+0 0  9993
2 32253   2.7089  82.7686 0005280  91.7058 102.9821  0.99050487 65203
WGS F1 (USA 195)        
1 32258U 07046A   25204.39392898 -.00000276  00000+0  00000+0 0  9995
2 32258   0.0694  88.4262 0002563 113.4769 198.7224  1.00279163 49036
SKYNET 5B               
1 32294U 07056B   25205.20083624  .00000126  00000+0  00000+0 0  9994
2 32294   4.4145  77.4618 0003899  44.0700 278.0154  1.00271063 64903
ASTRA 4A                
1 32299U 07057A   25205.55375688  .00000021  00000+0  00000+0 0  9996
2 32299   0.0112  13.6622 0002722 103.8238  29.1846  1.00272796 48364
HORIZONS-2              
1 32388U 07063B   25205.53815679 -.00000266  00000+0  00000+0 0  9991
2 32388   1.7537  84.7986 0002178  65.8606 271.7612  1.00270112 64527
THURAYA-3               
1 32404U 08001A   25205.65422703 -.00000316  00000+0  00000+0 0  9994
2 32404   5.4477  34.9708 0002053  83.2726 158.3801  1.00272680 64205
THOR 5                  
1 32487U 08006A   25205.33847124 -.00000021  00000+0  00000+0 0  9996
2 32487   0.0139 263.7350 0002198 226.5101 293.1672  1.00269195 64027
AMC-14                  
1 32708U 08011A   25203.20094150  .00000071  00000+0  00000+0 0  9999
2 32708  23.6036  24.4854 0038898   7.4808   1.4581  1.00298222 64793
DIRECTV 11              
1 32729U 08013A   25205.51303635 -.00000137  00000+0  00000+0 0  9995
2 32729   0.0151  88.4193 0000625 173.9254 125.6465  1.00267317 42304
ICO G1                  
1 32763U 08016A   25205.51334333 -.00000185  00000+0  00000+0 0  9998
2 32763   5.4725  36.8539 0002430  71.5998 285.9761  1.00273462 63257
VINASAT-1               
1 32767U 08018A   25205.58205132 -.00000341  00000+0  00000+0 0  9999
2 32767   0.0444 277.2473 0001690 231.6181 135.1353  1.00270250 63309
STAR ONE C2             
1 32768U 08018B   25205.53989014 -.00000288  00000+0  00000+0 0  9993
2 32768   0.4024  84.2625 0002577  51.3130 296.2755  1.00272737 63362
AMOS-3                  
1 32794U 08022A   25205.33777791 -.00000047  00000+0  00000+0 0  9995
2 32794   0.0204 127.7737 0001806  39.4161 252.5935  1.00271071 79046
GALAXY 18 (G-18)        
1 32951U 08024A   25205.52836341  .00000014  00000+0  00000+0 0  9993
2 32951   0.0139  74.2057 0002974  62.1141 233.3563  1.00270091 42569
ZHONGXING-9             
1 33051U 08028A   25204.50030573 -.00000257  00000+0  00000+0 0  9999
2 33051   0.0137  95.3516 0004027  45.7123  72.7218  1.00271492 62741
SKYNET 5C               
1 33055U 08030A   25205.33509122 -.00000154  00000+0  00000+0 0  9995
2 33055   2.9449  80.9608 0004278  40.5380 283.5724  1.00269996 62661
TURKSAT 3A              
1 33056U 08030B   25205.56112356  .00000134  00000+0  00000+0 0  9997
2 33056   0.0134  63.2972 0004920  54.7630  68.4526  1.00274003 49074
INTELSAT 25 (IS-25)     
1 33153U 08034A   25205.47514498 -.00000237  00000+0  00000+0 0  9997
2 33153   1.8602  84.4650 0003403  60.1159 297.4094  1.00271477 62409
ECHOSTAR 11             
1 33207U 08035A   25205.53096343 -.00000068  00000+0  00000+0 0  9991
2 33207   0.1546  88.0493 0002358  33.6488 261.9230  1.00271248 47925
SUPERBIRD-C2            
1 33274U 08038A   25205.43857147 -.00000264  00000+0  00000+0 0  9992
2 33274   1.5129  85.5793 0000717 124.5807  34.0736  1.00271192102445
AMC-21                  
1 33275U 08038B   25205.53104895  .00000023  00000+0  00000+0 0  9991
2 33275   2.0979  84.4771 0002442  38.5118 245.7644  1.00270602 62208
INMARSAT 4-F3           
1 33278U 08039A   25205.39054943 -.00000152  00000+0  00000+0 0  9991
2 33278   4.0184  30.0968 0002437 106.0007 208.8337  1.00270432 43252
NIMIQ 4                 
1 33373U 08044A   25205.53651013 -.00000232  00000+0  00000+0 0  9999
2 33373   0.0064  21.7446 0001972 110.3391 281.5323  1.00270727 61694
GALAXY 19 (G-19)        
1 33376U 08045A   25205.53356344 -.00000151  00000+0  00000+0 0  9992
2 33376   0.0590 256.9302 0002780 238.2987 262.3424  1.00271809 61616
ASTRA 1M                
1 33436U 08057A   25205.55661689  .00000108  00000+0  00000+0 0  9996
2 33436   0.0154  41.4923 0005464  97.4144  23.1721  1.00273602 42454
EUTELSAT HOTBIRD 13C    
1 33459U 08065A   25205.40753619 -.00000114  00000+0  00000+0 0  9997
2 33459   2.1046  83.1324 0003137  50.1122 303.3131  1.00271747 44051
EXPRESS-AM44            
1 33595U 09007A   25204.45277888 -.00000101  00000+0  00000+0 0  9994
2 33595   2.6148  82.5060 0004361  37.2705 333.6348  1.00271529 48994
NSS-9                   
1 33749U 09008A   25205.55129617  .00000059  00000+0  00000+0 0  9995
2 33749   0.4124  84.9421 0001912  28.5595 210.5221  1.00271351 60238
